GPS BIIA-23 (PRN 18)    
1 22877U 93068A   18339.56250882 -.00000079  00000-0  00000+0 0  9998
2 22877  54.5467  76.4772 0147486  78.0818 225.9598  2.00570404183985
GPS BIIR-2  (PRN 13)    
1 24876U 97035A   18339.53759568  .00000068  00000-0  00000+0 0  9996
2 24876  55.4703 206.0496 0034409  79.7200 280.7623  2.00564252156595
GPS BIIR-3  (PRN 11)    
1 25933U 99055A   18339.55891133 -.00000096  00000-0  00000+0 0  9994
2 25933  52.0035  54.2343 0165252 106.0112 197.0317  2.00563196140401
GPS BIIR-4  (PRN 20)    
1 26360U 00025A   18339.42251392  .00000025  00000-0  00000+0 0  9992
2 26360  53.2596 132.5221 0042976 127.2081 123.4765  2.00563165136099
GPS BIIR-5  (PRN 28)    
1 26407U 00040A   18339.32004425 -.00000077  00000-0  00000+0 0  9991
2 26407  56.3845 324.1950 0198273 274.4302 238.5877  2.00561489134764
GPS BIIR-6  (PRN 14)    
1 26605U 00071A   18339.64104198  .00000071  00000-0  00000+0 0  9991
2 26605  55.0440 203.5701 0102017 248.9377  45.4107  2.00565971132370
GPS BIIR-8  (PRN 16)    
1 27663U 03005A   18339.23434274 -.00000077  00000-0  00000+0 0  9999
2 27663  56.4470 323.9643 0101224  28.5798 181.8345  2.00556461116121
GPS BIIR-9  (PRN 21)    
1 27704U 03010A   18339.48109505 -.00000080  00000-0  00000+0 0  9998
2 27704  54.2195  76.0123 0247914 273.6409  79.5796  2.00574693114932
GPS BIIR-10 (PRN 22)    
1 28129U 03058A   18339.23460895  .00000033  00000-0  00000+0 0  9994
2 28129  53.0722 135.3523 0072194 276.4412  82.7242  2.00566741109628
GPS BIIR-11 (PRN 19)    
1 28190U 04009A   18339.32906014 -.00000086  00000-0  00000+0 0  9996
2 28190  56.2262  24.7645 0091839  75.2851 353.1377  2.00571367107807
GPS BIIR-12 (PRN 23)    
1 28361U 04023A   18339.30508160  .00000075  00000-0  00000+0 0  9997
2 28361  54.0512 198.1499 0127877 227.9537  96.4944  2.00561921105881
GPS BIIR-13 (PRN 02)    
1 28474U 04045A   18339.34276767 -.00000080  00000-0  00000+0 0  9992
2 28474  54.5828  75.6976 0187644 256.6260  98.3468  2.00571317103251
GPS BIIRM-1 (PRN 17)    
1 28874U 05038A   18339.22989560 -.00000084  00000-0  00000+0 0  9992
2 28874  56.3592  22.0987 0131521 259.7740 122.6322  2.00566417 96651
GPS BIIRM-2 (PRN 31)    
1 29486U 06042A   18339.63098740 -.00000036  00000-0  00000+0 0  9991
2 29486  55.0902 260.7989 0091200 354.9267 234.1473  2.00549529 89378
GPS BIIRM-3 (PRN 12)    
1 29601U 06052A   18339.25390939 -.00000077  00000-0  00000+0 0  9999
2 29601  56.4248 322.8801 0069332  57.3868 303.2783  2.00556835 88289
GPS BIIRM-4 (PRN 15)    
1 32260U 07047A   18339.07299103  .00000078  00000-0  00000+0 0  9990
2 32260  53.1751 194.0261 0109379  41.5776 319.3393  2.00571124 81652
GPS BIIRM-5 (PRN 29)    
1 32384U 07062A   18339.04822535 -.00000084  00000-0  00000+0 0  9990
2 32384  56.4379  22.7289 0003971  95.1686  24.1540  2.00573403 80391
GPS BIIRM-6 (PRN 07)    
1 32711U 08012A   18339.47871141 -.00000036  00000-0  00000+0 0  9991
2 32711  54.8266 260.0413 0122497 218.7485 140.3913  2.00568715 78597
GPS BIIRM-8 (PRN 05)    
1 35752U 09043A   18338.52729641  .00000049  00000-0  00000+0 0  9999
2 35752  54.3663 137.7990 0054410  39.6460  18.8114  2.00573408 68151
GPS BIIF-1  (PRN 25)    
1 36585U 10022A   18339.57865398 -.00000080  00000-0  00000+0 0  9995
2 36585  55.7094 319.3059 0075253  47.4051 160.4348  2.00577719 62419
GPS BIIF-2  (PRN 01)    
1 37753U 11036A   18339.56268698 -.00000074  00000-0  00000+0 0  9991
2 37753  55.7806  79.4198 0080400  38.6722 239.3241  2.00565055 54108
GPS BIIF-3  (PRN 24)    
1 38833U 12053A   18339.15926563 -.00000034  00000-0  00000+0 0  9994
2 38833  53.8590 256.4443 0076560  30.4572 330.0120  2.00570088 45154
GPS BIIF-4  (PRN 27)    
1 39166U 13023A   18338.52609367 -.00000084  00000-0  00000-0 0  9998
2 39166  56.0494  18.9668 0061458  22.5706 337.7574  2.00560802 40697
GPS BIIF-5  (PRN 30)    
1 39533U 14008A   18339.02268554 -.00000044  00000-0  00000+0 0  9990
2 39533  53.9977 261.8224 0036110 192.2396 167.6906  2.00565339 35065
GPS BIIF-6  (PRN 06)    
1 39741U 14026A   18339.30294127 -.00000075  00000-0  00000+0 0  9991
2 39741  55.7623  78.9545 0013930 286.6124  73.2241  2.00554637 33341
GPS BIIF-7  (PRN 09)    
1 40105U 14045A   18338.89127871  .00000076  00000-0  00000+0 0  9992
2 40105  54.5776 198.3639 0011982  97.2908 262.9367  2.00551203 31783
GPS BIIF-8  (PRN 03)    
1 40294U 14068A   18339.26500379  .00000044  00000-0  00000+0 0  9991
2 40294  55.1182 139.1703 0017294  34.7683 325.3376  2.00568846 30024
GPS BIIF-9  (PRN 26)    
1 40534U 15013A   18338.90509156 -.00000080  00000-0  00000+0 0  9992
2 40534  54.6445 317.8777 0033087 359.0610   0.9247  2.00553407 27075
GPS BIIF-10  (PRN 08)   
1 40730U 15033A   18338.56182467 -.00000085  00000-0  00000+0 0  9991
2 40730  55.5773  18.3937 0039927 333.3676  26.4855  2.00565100 24825
GPS BIIF-11  (PRN 10)   
1 41019U 15062A   18339.11322003  .00000046  00000-0  00000+0 0  9994
2 41019  55.1213 138.9852 0041469 201.7853 158.0323  2.00564554 22658
GPS BIIF-12  (PRN 32)   
1 41328U 16007A   18339.20452419  .00000077  00000-0  00000+0 0  9996
2 41328  54.8248 198.6886 0024724 214.3587 145.5729  2.00556609 20712
